{
  "norad_id": 53134,
  "name": "STARLINK-4150",
  "history": [
    {
      "epoch": "2026-03-28T10:05:40.707456Z",
      "apogee_km": 540.7405200638086,
      "perigee_km": 538.7537037468701,
      "latitude_deg": -3.2949803666213425e-05,
      "longitude_deg": 112.77125318808392,
      "height_km": 540.4798930181727,
      "semi_major_axis_km": 6917.8841119053395,
      "eccentricity": 0.0001436,
      "inclination_deg": 53.2167,
      "raan_deg": 90.0322,
      "arg_perigee_deg": 80.569,
      "mean_anomaly_deg": 279.5464,
      "mean_motion_rev_day": 15.08838782
    },
    {
      "epoch": "2026-03-29T05:10:17.978304Z",
      "apogee_km": 540.7417097460375,
      "perigee_km": 538.7258422019177,
      "latitude_deg": 1.7059023635628723e-05,
      "longitude_deg": -177.73597030388763,
      "height_km": 540.4641518370277,
      "semi_major_axis_km": 6917.870775973977,
      "eccentricity": 0.0001457,
      "inclination_deg": 53.2171,
      "raan_deg": 86.4637,
      "arg_perigee_deg": 80.5671,
      "mean_anomaly_deg": 279.5486,
      "mean_motion_rev_day": 15.08843145
    },
    {
      "epoch": "2026-03-30T00:14:55.795200Z",
      "apogee_km": 540.7394006561635,
      "perigee_km": 538.7581181746682,
      "latitude_deg": 2.4363518278694843e-05,
      "longitude_deg": -108.24360645035172,
      "height_km": 540.4728614942288,
      "semi_major_axis_km": 6917.885759415416,
      "eccentricity": 0.0001432,
      "inclination_deg": 53.2169,
      "raan_deg": 82.8971,
      "arg_perigee_deg": 80.0319,
      "mean_anomaly_deg": 280.0835,
      "mean_motion_rev_day": 15.08838243
    },
    {
      "epoch": "2026-03-30T06:36:28.301184Z",
      "apogee_km": 540.7438820768266,
      "perigee_km": 538.7487645263855,
      "latitude_deg": 5.537388338939022e-06,
      "longitude_deg": 154.91998219865002,
      "height_km": 540.4727946172311,
      "semi_major_axis_km": 6917.883323301606,
      "eccentricity": 0.0001442,
      "inclination_deg": 53.217,
      "raan_deg": 81.7073,
      "arg_perigee_deg": 80.2399,
      "mean_anomaly_deg": 279.8756,
      "mean_motion_rev_day": 15.0883904
    },
    {
      "epoch": "2026-03-30T19:19:33.657888Z",
      "apogee_km": 540.7742115325382,
      "perigee_km": 538.7339870895303,
      "latitude_deg": -3.497642867307439e-06,
      "longitude_deg": -38.75315955817132,
      "height_km": 540.5375765195785,
      "semi_major_axis_km": 6917.891099311034,
      "eccentricity": 0.00014746,
      "inclination_deg": 53.2164,
      "raan_deg": 79.3288,
      "arg_perigee_deg": 83.698,
      "mean_anomaly_deg": 276.418,
      "mean_motion_rev_day": 15.08836496
    },
    {
      "epoch": "2026-03-31T15:59:34.700640Z",
      "apogee_km": 540.7755433138127,
      "perigee_km": 538.7389152527112,
      "latitude_deg": -6.519567054609276e-06,
      "longitude_deg": 6.528132818929162,
      "height_km": 540.5603371184627,
      "semi_major_axis_km": 6917.894229283262,
      "eccentricity": 0.0001472,
      "inclination_deg": 53.2168,
      "raan_deg": 75.4632,
      "arg_perigee_deg": 84.7946,
      "mean_anomaly_deg": 275.3214,
      "mean_motion_rev_day": 15.08835472
    },
    {
      "epoch": "2026-04-01T15:50:21.885792Z",
      "apogee_km": 540.7759770380817,
      "perigee_km": 538.7351987246566,
      "latitude_deg": -4.296765112996664e-05,
      "longitude_deg": 3.3912636962181524,
      "height_km": 540.5657229672253,
      "semi_major_axis_km": 6917.892587881369,
      "eccentricity": 0.0001475,
      "inclination_deg": 53.2171,
      "raan_deg": 71.0023,
      "arg_perigee_deg": 85.1995,
      "mean_anomaly_deg": 274.9165,
      "mean_motion_rev_day": 15.08836009
    },
    {
      "epoch": "2026-04-02T07:44:12.920064Z",
      "apogee_km": 540.7475824215635,
      "perigee_km": 538.7306064674667,
      "latitude_deg": 1.966341120722226e-05,
      "longitude_deg": 121.30148059184,
      "height_km": 540.5642144505756,
      "semi_major_axis_km": 6917.876094444515,
      "eccentricity": 0.00014578,
      "inclination_deg": 53.2173,
      "raan_deg": 68.028,
      "arg_perigee_deg": 85.9946,
      "mean_anomaly_deg": 274.1213,
      "mean_motion_rev_day": 15.08841405
    },
    {
      "epoch": "2026-04-03T15:31:55.682400Z",
      "apogee_km": 540.7501926612786,
      "perigee_km": 538.7301725239613,
      "latitude_deg": -6.980530916569852e-05,
      "longitude_deg": -2.879644854169349,
      "height_km": 540.5543240184087,
      "semi_major_axis_km": 6917.87718259262,
      "eccentricity": 0.000146,
      "inclination_deg": 53.2171,
      "raan_deg": 62.0809,
      "arg_perigee_deg": 85.3766,
      "mean_anomaly_deg": 274.7392,
      "mean_motion_rev_day": 15.08841049
    },
    {
      "epoch": "2026-04-04T07:25:47.816544Z",
      "apogee_km": 540.9030122905469,
      "perigee_km": 538.6195524255063,
      "latitude_deg": -6.77543920911871e-06,
      "longitude_deg": 115.02687602595734,
      "height_km": 540.7858310095673,
      "semi_major_axis_km": 6917.898282358026,
      "eccentricity": 0.00016504,
      "inclination_deg": 53.2184,
      "raan_deg": 59.1075,
      "arg_perigee_deg": 96.4942,
      "mean_anomaly_deg": 263.6238,
      "mean_motion_rev_day": 15.08834146
    },
    {
      "epoch": "2026-04-05T04:05:48.028128Z",
      "apogee_km": 540.8797963294028,
      "perigee_km": 538.6082409181272,
      "latitude_deg": 4.0340878611355664e-05,
      "longitude_deg": 160.31187623990084,
      "height_km": 540.7972328152648,
      "semi_major_axis_km": 6917.881018623764,
      "eccentricity": 0.00016418,
      "inclination_deg": 53.2185,
      "raan_deg": 55.2421,
      "arg_perigee_deg": 97.9849,
      "mean_anomaly_deg": 262.133,
      "mean_motion_rev_day": 15.08839794
    },
    {
      "epoch": "2026-04-06T02:21:12.414240Z",
      "apogee_km": 540.80203087074,
      "perigee_km": 538.7371741080278,
      "latitude_deg": -1.3271796072435276e-05,
      "longitude_deg": -178.61732737495402,
      "height_km": 540.777594324196,
      "semi_major_axis_km": 6917.906602489384,
      "eccentricity": 0.00014924,
      "inclination_deg": 53.218,
      "raan_deg": 51.0786,
      "arg_perigee_deg": 96.25,
      "mean_anomaly_deg": 263.8662,
      "mean_motion_rev_day": 15.08831424
    },
    {
      "epoch": "2026-04-07T05:22:45.951744Z",
      "apogee_km": 540.7781760272683,
      "perigee_km": 538.731171880946,
      "latitude_deg": -8.127891325436293e-06,
      "longitude_deg": 129.82941628655163,
      "height_km": 540.7910807798393,
      "semi_major_axis_km": 6917.891673954107,
      "eccentricity": 0.00014795,
      "inclination_deg": 53.218,
      "raan_deg": 46.025,
      "arg_perigee_deg": 97.9063,
      "mean_anomaly_deg": 262.2097,
      "mean_motion_rev_day": 15.08836308
    },
    {
      "epoch": "2026-04-08T13:10:28.721856Z",
      "apogee_km": 540.76667433497,
      "perigee_km": 538.7307405712654,
      "latitude_deg": 3.229947751468076e-05,
      "longitude_deg": 5.647250536720253,
      "height_km": 540.5994779329566,
      "semi_major_axis_km": 6917.885707453117,
      "eccentricity": 0.00014715,
      "inclination_deg": 53.2192,
      "raan_deg": 40.0768,
      "arg_perigee_deg": 87.4681,
      "mean_anomaly_deg": 272.648,
      "mean_motion_rev_day": 15.0883826
    },
    {
      "epoch": "2026-04-09T13:01:15.796416Z",
      "apogee_km": 540.6792526370091,
      "perigee_km": 538.8169579666619,
      "latitude_deg": -1.104114526478829e-05,
      "longitude_deg": 2.510234099687419,
      "height_km": 540.5937353669937,
      "semi_major_axis_km": 6917.885105301835,
      "eccentricity": 0.0001346,
      "inclination_deg": 53.2176,
      "raan_deg": 35.6153,
      "arg_perigee_deg": 86.9144,
      "mean_anomaly_deg": 273.2002,
      "mean_motion_rev_day": 15.08838457
    },
    {
      "epoch": "2026-04-10T00:08:57.770016Z",
      "apogee_km": 540.7020023791911,
      "perigee_km": 538.7881011307536,
      "latitude_deg": 4.701311946643687e-05,
      "longitude_deg": -166.9528381911917,
      "height_km": 540.5899608905318,
      "semi_major_axis_km": 6917.882051754972,
      "eccentricity": 0.00013833,
      "inclination_deg": 53.218,
      "raan_deg": 33.5341,
      "arg_perigee_deg": 86.9555,
      "mean_anomaly_deg": 273.1596,
      "mean_motion_rev_day": 15.08839456
    },
    {
      "epoch": "2026-04-11T12:42:50.946912Z",
      "apogee_km": 540.8324576268369,
      "perigee_km": 538.7045099000306,
      "latitude_deg": 7.429526587764671e-06,
      "longitude_deg": -3.7641030177388797,
      "height_km": 540.5281184579026,
      "semi_major_axis_km": 6917.905483763433,
      "eccentricity": 0.0001538,
      "inclination_deg": 53.2189,
      "raan_deg": 26.6961,
      "arg_perigee_deg": 82.6563,
      "mean_anomaly_deg": 277.4604,
      "mean_motion_rev_day": 15.0883179
    },
    {
      "epoch": "2026-04-13T01:16:42.648096Z",
      "apogee_km": 540.8354398453184,
      "perigee_km": 538.6640535532642,
      "latitude_deg": 4.059629334836661e-05,
      "longitude_deg": 159.42905386533803,
      "height_km": 540.5669950561589,
      "semi_major_axis_km": 6917.886746699291,
      "eccentricity": 0.00015694,
      "inclination_deg": 53.2185,
      "raan_deg": 19.8563,
      "arg_perigee_deg": 85.8652,
      "mean_anomaly_deg": 274.252,
      "mean_motion_rev_day": 15.0883792
    },
    {
      "epoch": "2026-04-14T10:39:48.007296Z",
      "apogee_km": 540.5474781557577,
      "perigee_km": 538.902272244597,
      "latitude_deg": 3.3725998718766846e-05,
      "longitude_deg": 11.038454066747878,
      "height_km": 540.4055694623411,
      "semi_major_axis_km": 6917.861875200177,
      "eccentricity": 0.00011891,
      "inclination_deg": 53.2164,
      "raan_deg": 13.6091,
      "arg_perigee_deg": 74.8346,
      "mean_anomaly_deg": 285.2778,
      "mean_motion_rev_day": 15.08846057
    }
  ]
}